[{"OBJECT_NAME":"COSMOS 2529 (757)","OBJECT_ID":"2018-086A","EPOCH":"2026-02-27T08:59:15.336384","MEAN_MOTION":2.1310188,"ECCENTRICITY":0.00079597,"INCLINATION":64.2955,"RA_OF_ASC_NODE":196.2992,"ARG_OF_PERICENTER":253.0448,"MEAN_ANOMALY":106.8346,"EPHEMERIS_TYPE":0,"CLASSIFICATION_TYPE":"U","NORAD_CAT_ID":43687,"ELEMENT_SET_NO":999,"REV_AT_EPOCH":5694,"BSTAR":0,"MEAN_MOTION_DOT":8.0e-8,"MEAN_MOTION_DDOT":0},{"OBJECT_NAME":"COSMOS 2534 (758)","OBJECT_ID":"2019-030A","EPOCH":"2026-03-03T15:42:21.406752","MEAN_MOTION":2.13102169,"ECCENTRICITY":0.0009568,"INCLINATION":64.3688,"RA_OF_ASC_NODE":196.1668,"ARG_OF_PERICENTER":280.0385,"MEAN_ANOMALY":257.7323,"EPHEMERIS_TYPE":0,"CLASSIFICATION_TYPE":"U","NORAD_CAT_ID":44299,"ELEMENT_SET_NO":999,"REV_AT_EPOCH":5267,"BSTAR":0,"MEAN_MOTION_DOT":-4.0e-8,"MEAN_MOTION_DDOT":0},{"OBJECT_NAME":"COSMOS 2544 (759)","OBJECT_ID":"2019-088A","EPOCH":"2026-03-03T10:41:32.430336","MEAN_MOTION":2.1310181,"ECCENTRICITY":0.00157445,"INCLINATION":65.5052,"RA_OF_ASC_NODE":77.2588,"ARG_OF_PERICENTER":259.4507,"MEAN_ANOMALY":100.4201,"EPHEMERIS_TYPE":0,"CLASSIFICATION_TYPE":"U","NORAD_CAT_ID":44850,"ELEMENT_SET_NO":999,"REV_AT_EPOCH":4846,"BSTAR":0,"MEAN_MOTION_DOT":2.4e-7,"MEAN_MOTION_DDOT":0},{"OBJECT_NAME":"COSMOS 2545 (760)","OBJECT_ID":"2020-018A","EPOCH":"2026-03-03T15:23:10.080960","MEAN_MOTION":2.13102285,"ECCENTRICITY":0.00082572,"INCLINATION":64.4181,"RA_OF_ASC_NODE":316.1306,"ARG_OF_PERICENTER":250.5156,"MEAN_ANOMALY":109.4558,"EPHEMERIS_TYPE":0,"CLASSIFICATION_TYPE":"U","NORAD_CAT_ID":45358,"ELEMENT_SET_NO":999,"REV_AT_EPOCH":4641,"BSTAR":0,"MEAN_MOTION_DOT":-4.9e-7,"MEAN_MOTION_DDOT":0},{"OBJECT_NAME":"COSMOS 2547 (705K)","OBJECT_ID":"2020-075A","EPOCH":"2026-03-02T10:07:23.038752","MEAN_MOTION":2.13100073,"ECCENTRICITY":0.00067076,"INCLINATION":64.5998,"RA_OF_ASC_NODE":196.0353,"ARG_OF_PERICENTER":229.5207,"MEAN_ANOMALY":130.3796,"EPHEMERIS_TYPE":0,"CLASSIFICATION_TYPE":"U","NORAD_CAT_ID":46805,"ELEMENT_SET_NO":999,"REV_AT_EPOCH":4163,"BSTAR":0,"MEAN_MOTION_DOT":-1.2e-7,"MEAN_MOTION_DDOT":0},{"OBJECT_NAME":"COSMOS 2557 (706K)","OBJECT_ID":"2022-075A","EPOCH":"2026-03-03T12:36:37.175328","MEAN_MOTION":2.13101658,"ECCENTRICITY":0.00116297,"INCLINATION":64.3599,"RA_OF_ASC_NODE":318.2098,"ARG_OF_PERICENTER":283.5045,"MEAN_ANOMALY":76.4245,"EPHEMERIS_TYPE":0,"CLASSIFICATION_TYPE":"U","NORAD_CAT_ID":52984,"ELEMENT_SET_NO":999,"REV_AT_EPOCH":2846,"BSTAR":0,"MEAN_MOTION_DOT":-5.2e-7,"MEAN_MOTION_DDOT":0},{"OBJECT_NAME":"COSMOS 2559 (707K)","OBJECT_ID":"2022-130A","EPOCH":"2026-02-28T23:57:48.913920","MEAN_MOTION":2.13101169,"ECCENTRICITY":0.00106014,"INCLINATION":64.3338,"RA_OF_ASC_NODE":318.3857,"ARG_OF_PERICENTER":182.1671,"MEAN_ANOMALY":177.8809,"EPHEMERIS_TYPE":0,"CLASSIFICATION_TYPE":"U","NORAD_CAT_ID":54031,"ELEMENT_SET_NO":999,"REV_AT_EPOCH":2638,"BSTAR":0,"MEAN_MOTION_DOT":-4.9e-7,"MEAN_MOTION_DDOT":0},{"OBJECT_NAME":"COSMOS 2564 (761)","OBJECT_ID":"2022-161A","EPOCH":"2026-03-02T17:15:25.982208","MEAN_MOTION":2.13101914,"ECCENTRICITY":0.00093867,"INCLINATION":64.7417,"RA_OF_ASC_NODE":196.2427,"ARG_OF_PERICENTER":209.4711,"MEAN_ANOMALY":150.435,"EPHEMERIS_TYPE":0,"CLASSIFICATION_TYPE":"U","NORAD_CAT_ID":54377,"ELEMENT_SET_NO":999,"REV_AT_EPOCH":2536,"BSTAR":0,"MEAN_MOTION_DOT":-1.1e-7,"MEAN_MOTION_DDOT":0},{"OBJECT_NAME":"COSMOS 2569 (703K)","OBJECT_ID":"2023-114A","EPOCH":"2026-03-03T04:49:52.673376","MEAN_MOTION":2.13103933,"ECCENTRICITY":0.00128885,"INCLINATION":65.2411,"RA_OF_ASC_NODE":76.1935,"ARG_OF_PERICENTER":291.5477,"MEAN_ANOMALY":68.3625,"EPHEMERIS_TYPE":0,"CLASSIFICATION_TYPE":"U","NORAD_CAT_ID":57517,"ELEMENT_SET_NO":999,"REV_AT_EPOCH":2000,"BSTAR":0,"MEAN_MOTION_DOT":2.4e-7,"MEAN_MOTION_DDOT":0},{"OBJECT_NAME":"COSMOS 2584 (704K)","OBJECT_ID":"2025-042A","EPOCH":"2026-02-28T17:48:18.452736","MEAN_MOTION":2.13103267,"ECCENTRICITY":0.00078227,"INCLINATION":65.0213,"RA_OF_ASC_NODE":76.4877,"ARG_OF_PERICENTER":236.244,"MEAN_ANOMALY":123.7373,"EPHEMERIS_TYPE":0,"CLASSIFICATION_TYPE":"U","NORAD_CAT_ID":63130,"ELEMENT_SET_NO":999,"REV_AT_EPOCH":773,"BSTAR":0,"MEAN_MOTION_DOT":3.9e-7,"MEAN_MOTION_DDOT":0},{"OBJECT_NAME":"COSMOS 2596 (708K)","OBJECT_ID":"2025-206B","EPOCH":"2026-03-03T15:14:42.215712","MEAN_MOTION":2.13100238,"ECCENTRICITY":0.0012898,"INCLINATION":64.6947,"RA_OF_ASC_NODE":318.662,"ARG_OF_PERICENTER":315.4778,"MEAN_ANOMALY":221.7374,"EPHEMERIS_TYPE":0,"CLASSIFICATION_TYPE":"U","NORAD_CAT_ID":65590,"ELEMENT_SET_NO":999,"REV_AT_EPOCH":366,"BSTAR":0,"MEAN_MOTION_DOT":-5.3e-7,"MEAN_MOTION_DDOT":0}]
